[{"OBJECT_NAME":"DUPLEX","OBJECT_ID":"1998-067XS","EPOCH":"2026-03-24T22:17:35.945664","MEAN_MOTION":15.57162607,"ECCENTRICITY":0.00031607,"INCLINATION":51.6302,"RA_OF_ASC_NODE":353.1716,"ARG_OF_PERICENTER":178.0545,"MEAN_ANOMALY":182.046,"EPHEMERIS_TYPE":0,"CLASSIFICATION_TYPE":"U","NORAD_CAT_ID":66906,"ELEMENT_SET_NO":999,"REV_AT_EPOCH":1750,"BSTAR":0.00033523952,"MEAN_MOTION_DOT":0.00024404,"MEAN_MOTION_DDOT":0},{"OBJECT_NAME":"ISS OBJECT XT","OBJECT_ID":"1998-067XT","EPOCH":"2026-03-24T21:42:50.995296","MEAN_MOTION":15.74685538,"ECCENTRICITY":0.00053898,"INCLINATION":51.6251,"RA_OF_ASC_NODE":347.7296,"ARG_OF_PERICENTER":177.4777,"MEAN_ANOMALY":182.6251,"EPHEMERIS_TYPE":0,"CLASSIFICATION_TYPE":"U","NORAD_CAT_ID":66907,"ELEMENT_SET_NO":999,"REV_AT_EPOCH":1757,"BSTAR":0.0011776604,"MEAN_MOTION_DOT":0.00179802,"MEAN_MOTION_DDOT":0},{"OBJECT_NAME":"ISS OBJECT XU","OBJECT_ID":"1998-067XU","EPOCH":"2026-03-24T21:38:12.554016","MEAN_MOTION":15.74884594,"ECCENTRICITY":0.00056167,"INCLINATION":51.6244,"RA_OF_ASC_NODE":347.7039,"ARG_OF_PERICENTER":177.7304,"MEAN_ANOMALY":182.3722,"EPHEMERIS_TYPE":0,"CLASSIFICATION_TYPE":"U","NORAD_CAT_ID":66908,"ELEMENT_SET_NO":999,"REV_AT_EPOCH":1757,"BSTAR":0.0012157598,"MEAN_MOTION_DOT":0.00187437,"MEAN_MOTION_DDOT":0},{"OBJECT_NAME":"SILVERSAT","OBJECT_ID":"1998-067XV","EPOCH":"2026-03-24T23:51:28.979424","MEAN_MOTION":15.79536153,"ECCENTRICITY":0.00063389,"INCLINATION":51.622,"RA_OF_ASC_NODE":346.062,"ARG_OF_PERICENTER":184.6058,"MEAN_ANOMALY":175.4886,"EPHEMERIS_TYPE":0,"CLASSIFICATION_TYPE":"U","NORAD_CAT_ID":66909,"ELEMENT_SET_NO":999,"REV_AT_EPOCH":1760,"BSTAR":0.0013608547,"MEAN_MOTION_DOT":0.00260451,"MEAN_MOTION_DDOT":0},{"OBJECT_NAME":"ISS OBJECT XW","OBJECT_ID":"1998-067XW","EPOCH":"2026-03-24T23:19:45.463008","MEAN_MOTION":15.73475349,"ECCENTRICITY":0.0005866,"INCLINATION":51.624,"RA_OF_ASC_NODE":347.4212,"ARG_OF_PERICENTER":177.4194,"MEAN_ANOMALY":182.6836,"EPHEMERIS_TYPE":0,"CLASSIFICATION_TYPE":"U","NORAD_CAT_ID":66910,"ELEMENT_SET_NO":999,"REV_AT_EPOCH":1758,"BSTAR":0.0011028849,"MEAN_MOTION_DOT":0.00159396,"MEAN_MOTION_DDOT":0},{"OBJECT_NAME":"ISS OBJECT XX","OBJECT_ID":"1998-067XX","EPOCH":"2026-03-24T22:48:33.437664","MEAN_MOTION":15.85075899,"ECCENTRICITY":0.00079141,"INCLINATION":51.6196,"RA_OF_ASC_NODE":344.989,"ARG_OF_PERICENTER":186.7603,"MEAN_ANOMALY":173.3295,"EPHEMERIS_TYPE":0,"CLASSIFICATION_TYPE":"U","NORAD_CAT_ID":66911,"ELEMENT_SET_NO":999,"REV_AT_EPOCH":1760,"BSTAR":0.0014598161,"MEAN_MOTION_DOT":0.00366809,"MEAN_MOTION_DDOT":0},{"OBJECT_NAME":"ISS OBJECT XY","OBJECT_ID":"1998-067XY","EPOCH":"2026-03-24T18:39:29.983104","MEAN_MOTION":15.66719711,"ECCENTRICITY":0.00039903,"INCLINATION":51.6273,"RA_OF_ASC_NODE":350.6497,"ARG_OF_PERICENTER":176.2596,"MEAN_ANOMALY":183.8431,"EPHEMERIS_TYPE":0,"CLASSIFICATION_TYPE":"U","NORAD_CAT_ID":66912,"ELEMENT_SET_NO":999,"REV_AT_EPOCH":1751,"BSTAR":0.00089213712,"MEAN_MOTION_DOT":0.00096362,"MEAN_MOTION_DDOT":0},{"OBJECT_NAME":"KNACKSAT-2","OBJECT_ID":"1998-067XZ","EPOCH":"2026-03-24T22:03:41.867712","MEAN_MOTION":15.53079473,"ECCENTRICITY":0.00099058,"INCLINATION":51.6318,"RA_OF_ASC_NODE":356.1066,"ARG_OF_PERICENTER":240.7531,"MEAN_ANOMALY":119.2469,"EPHEMERIS_TYPE":0,"CLASSIFICATION_TYPE":"U","NORAD_CAT_ID":67683,"ELEMENT_SET_NO":999,"REV_AT_EPOCH":715,"BSTAR":0.00055673959,"MEAN_MOTION_DOT":0.00035223,"MEAN_MOTION_DDOT":0},{"OBJECT_NAME":"CORAL","OBJECT_ID":"1998-067YA","EPOCH":"2026-03-24T22:12:47.608128","MEAN_MOTION":15.56874692,"ECCENTRICITY":0.00122878,"INCLINATION":51.6305,"RA_OF_ASC_NODE":355.3995,"ARG_OF_PERICENTER":230.2179,"MEAN_ANOMALY":129.7731,"EPHEMERIS_TYPE":0,"CLASSIFICATION_TYPE":"U","NORAD_CAT_ID":67684,"ELEMENT_SET_NO":999,"REV_AT_EPOCH":716,"BSTAR":0.00098476951,"MEAN_MOTION_DOT":0.00072525,"MEAN_MOTION_DDOT":0},{"OBJECT_NAME":"GXIBA-1","OBJECT_ID":"1998-067YB","EPOCH":"2026-03-24T23:23:49.767648","MEAN_MOTION":15.53588882,"ECCENTRICITY":0.00118498,"INCLINATION":51.6331,"RA_OF_ASC_NODE":355.7329,"ARG_OF_PERICENTER":238.3998,"MEAN_ANOMALY":121.5836,"EPHEMERIS_TYPE":0,"CLASSIFICATION_TYPE":"U","NORAD_CAT_ID":67685,"ELEMENT_SET_NO":999,"REV_AT_EPOCH":716,"BSTAR":0.00063204593,"MEAN_MOTION_DOT":0.00040871,"MEAN_MOTION_DDOT":0},{"OBJECT_NAME":"UITMSAT-2","OBJECT_ID":"1998-067YC","EPOCH":"2026-03-24T18:28:17.417856","MEAN_MOTION":15.54430912,"ECCENTRICITY":0.00088048,"INCLINATION":51.6329,"RA_OF_ASC_NODE":356.6112,"ARG_OF_PERICENTER":208.2356,"MEAN_ANOMALY":151.8159,"EPHEMERIS_TYPE":0,"CLASSIFICATION_TYPE":"U","NORAD_CAT_ID":67686,"ELEMENT_SET_NO":999,"REV_AT_EPOCH":713,"BSTAR":0.00077298282,"MEAN_MOTION_DOT":0.00051668,"MEAN_MOTION_DDOT":0},{"OBJECT_NAME":"HMU-SAT2","OBJECT_ID":"1998-067YD","EPOCH":"2026-03-24T23:30:01.627200","MEAN_MOTION":15.53338979,"ECCENTRICITY":0.00084116,"INCLINATION":51.6326,"RA_OF_ASC_NODE":355.7594,"ARG_OF_PERICENTER":211.5179,"MEAN_ANOMALY":148.5308,"EPHEMERIS_TYPE":0,"CLASSIFICATION_TYPE":"U","NORAD_CAT_ID":67687,"ELEMENT_SET_NO":999,"REV_AT_EPOCH":708,"BSTAR":0.00062313314,"MEAN_MOTION_DOT":0.00039858,"MEAN_MOTION_DDOT":0},{"OBJECT_NAME":"LEOPARD","OBJECT_ID":"1998-067YE","EPOCH":"2026-03-24T18:36:20.745504","MEAN_MOTION":15.5403922,"ECCENTRICITY":0.00086373,"INCLINATION":51.6324,"RA_OF_ASC_NODE":356.6479,"ARG_OF_PERICENTER":208.847,"MEAN_ANOMALY":151.2044,"EPHEMERIS_TYPE":0,"CLASSIFICATION_TYPE":"U","NORAD_CAT_ID":67688,"ELEMENT_SET_NO":999,"REV_AT_EPOCH":705,"BSTAR":0.00071836856,"MEAN_MOTION_DOT":0.00047267,"MEAN_MOTION_DDOT":0},{"OBJECT_NAME":"CREW DRAGON 12","OBJECT_ID":"2026-031A","EPOCH":"2026-03-24T19:24:53.959968","MEAN_MOTION":15.48525391,"ECCENTRICITY":0.00062584,"INCLINATION":51.6344,"RA_OF_ASC_NODE":357.6177,"ARG_OF_PERICENTER":228.0573,"MEAN_ANOMALY":131.9883,"EPHEMERIS_TYPE":0,"CLASSIFICATION_TYPE":"U","NORAD_CAT_ID":67796,"ELEMENT_SET_NO":999,"REV_AT_EPOCH":55860,"BSTAR":0.00018679893,"MEAN_MOTION_DOT":9.69e-5,"MEAN_MOTION_DDOT":0},{"OBJECT_NAME":"PROGRESS-MS 33","OBJECT_ID":"2026-058A","EPOCH":"2026-03-24T19:24:53.959968","MEAN_MOTION":15.48525391,"ECCENTRICITY":0.00062584,"INCLINATION":51.6344,"RA_OF_ASC_NODE":357.6177,"ARG_OF_PERICENTER":228.0573,"MEAN_ANOMALY":131.9883,"EPHEMERIS_TYPE":0,"CLASSIFICATION_TYPE":"U","NORAD_CAT_ID":68319,"ELEMENT_SET_NO":999,"REV_AT_EPOCH":11,"BSTAR":0.00018679893,"MEAN_MOTION_DOT":9.69e-5,"MEAN_MOTION_DDOT":0}]
